IRIDIUM 171             
1 43929U 19002H   24092.63725689  .00000343  00000+0  11557-3 0  9993
2 43929  86.3995 330.8837 0002188  81.5987 278.5457 14.34215525273358
IRIDIUM 170             
1 43930U 19002J   24092.38855600  .00001401  00000+0  21833-3 0  9998
2 43930  86.6113 330.8204 0002121  90.2374 269.9086 14.72248360280554
IRIDIUM 167             
1 43931U 19002K   24092.63091086  .00000372  00000+0  12579-3 0  9990
2 43931  86.3985 330.6846 0002119  83.6636 276.4801 14.34220117273359
IRIDIUM 181             
1 56726U 23068S   24092.51229349  .00000067  00000+0  13986-4 0  9990
2 56726  86.8688  20.7023 0002416  79.7702 280.3772 14.43554375 46078
IRIDIUM 177             
1 56727U 23068T   24092.42968939  .00002202  00000+0  28642-3 0  9993
2 56727  86.2020 351.8090 0002380  84.0987 276.0505 14.80213514 47029
IRIDIUM 174             
1 56728U 23068U   24092.42428490  .00000290  00000+0  34607-4 0  9991
2 56728  86.2029 351.9092 0002477  90.4137 269.7367 14.80211118 47020
IRIDIUM 178             
1 56729U 23068V   24092.48651498  .00002238  00000+0  29111-3 0  9991
2 56729  86.5835   5.6957 0002529  94.4705 265.6806 14.80219271 47037
IRIDIUM 179             
1 56730U 23068W   24092.48109195  .00002336  00000+0  30406-3 0  9993
2 56730  86.6847   8.8629 0002469  93.6775 266.4729 14.80220718 47036
